NORAD_CAT_ID,OBJECT_NAME,OBJECT_TYPE,EPOCH,MEAN_MOTION,ECCENTRICITY,INCLINATION,RA_OF_ASC_NODE,ARG_OF_PERICENTER,MEAN_ANOMALY,BSTAR,MEAN_MOTION_DOT,MEAN_MOTION_DDOT,TLE_LINE0,TLE_LINE1,TLE_LINE2,SEMIMAJOR_AXIS,PERIOD,APOGEE,PERIGEE,DECAYED
53563.0,STARLINK-4561,PAYLOAD,2023-05-07 21:51:38,15.08827339,0.000111,53.2178,28.6248,117.7426,242.3679,-0.00010964,-2.032e-05,0.0,0 STARLINK-4561,1 53563U 22101AN  23127.91086605 -.00002032  00000-0 -10964-3 0  9990,2 53563  53.2178  28.6248 0001110 117.7426 242.3679 15.08827339 39923,6917.919,95.438,540.552,539.016,0.0
53563.0,STARLINK-4561,PAYLOAD,2023-05-08 01:02:24,15.08837053,0.0001141,53.2172,28.0327,92.5644,267.5479,-0.00010154,-1.903e-05,0.0,0 STARLINK-4561,1 53563U 22101AN  23128.04334180 -.00001903  00000-0 -10154-3 0  9996,2 53563  53.2172  28.0327 0001141  92.5644 267.5479 15.08837053 39948,6917.889,95.438,540.544,538.965,0.0
53563.0,STARLINK-4561,PAYLOAD,2023-05-08 10:34:42,15.08856279,0.0001013,53.2177,26.2473,82.4138,277.697,-0.00017491,-3.072e-05,0.0,0 STARLINK-4561,1 53563U 22101AN  23128.44076886 -.00003072  00000-0 -17491-3 0  9996,2 53563  53.2177  26.2473 0001013  82.4138 277.6970 15.08856279 40007,6917.831,95.437,540.396,538.995,0.0
53563.0,STARLINK-4561,PAYLOAD,2023-05-08 21:42:23,15.08883291,8.95e-05,53.2183,24.1652,105.5251,254.584,-0.00024781,-4.234e-05,0.0,0 STARLINK-4561,1 53563U 22101AN  23128.90443423 -.00004234  00000-0 -24781-3 0  9993,2 53563  53.2183  24.1652 0000895 105.5251 254.5840 15.08883291 40071,6917.748,95.435,540.232,538.994,0.0
53563.0,STARLINK-4561,PAYLOAD,2023-05-08 23:17:46,15.08852585,0.0001042,53.2179,23.8684,81.6002,278.5109,0.00024489,3.613e-05,0.0,0 STARLINK-4561,1 53563U 22101AN  23128.97068151  .00003613  00000-0  24489-3 0  9994,2 53563  53.2179  23.8684 0001042  81.6002 278.5109 15.08852585 40087,6917.842,95.437,540.428,538.986,0.0
53563.0,STARLINK-4561,PAYLOAD,2023-05-10 00:43:58,15.08843829,0.0001177,53.2171,19.1122,70.4918,289.6202,0.00016366,2.318e-05,0.0,0 STARLINK-4561,1 53563U 22101AN  23130.03053684  .00002318  00000-0  16366-3 0  9995,2 53563  53.2171  19.1122 0001177  70.4918 289.6202 15.08843829 40241,6917.869,95.437,540.548,538.919,0.0
53563.0,STARLINK-4561,PAYLOAD,2023-05-10 22:59:21,15.0885154,0.0001266,53.2175,14.9513,76.0356,284.0777,9.485e-05,1.222e-05,0.0,0 STARLINK-4561,1 53563U 22101AN  23130.95789024  .00001222  00000-0  94850-4 0  9998,2 53563  53.2175  14.9513 0001266  76.0356 284.0777 15.08851540 40389,6917.845,95.437,540.586,538.834,0.0
53563.0,STARLINK-4561,PAYLOAD,2023-05-11 22:50:09,15.08837462,0.0001315,53.2174,10.4883,82.7467,277.3674,6.5162e-05,7.49e-06,0.0,0 STARLINK-4561,1 53563U 22101AN  23131.95149845  .00000749  00000-0  65162-4 0  9997,2 53563  53.2174  10.4883 0001315  82.7467 277.3674 15.08837462 40536,6917.888,95.438,540.663,538.843,0.0
53563.0,STARLINK-4561,PAYLOAD,2023-05-12 21:05:33,15.08841753,0.0001141,53.217,6.3293,90.6731,269.4392,1.1159e-05,-1.1e-06,0.0,0 STARLINK-4561,1 53563U 22101AN  23132.87885814 -.00000110  00000-0  11159-4 0  9992,2 53563  53.2170   6.3293 0001141  90.6731 269.4392 15.08841753 40672,6917.875,95.437,540.529,538.951,0.0
53563.0,STARLINK-4561,PAYLOAD,2023-05-13 00:16:19,15.08848333,0.0001128,53.217,5.7358,96.7662,263.3458,0.00011319,1.514e-05,0.0,0 STARLINK-4561,1 53563U 22101AN  23133.01133463  .00001514  00000-0  11319-3 0  9990,2 53563  53.2170   5.7358 0001128  96.7662 263.3458 15.08848333 40691,6917.855,95.437,540.5,538.94,0.0
53563.0,STARLINK-4561,PAYLOAD,2023-05-13 19:20:57,15.08834167,0.0001165,53.2168,2.1658,80.1703,279.9421,-2.9339e-06,-3.34e-06,0.0,0 STARLINK-4561,1 53563U 22101AN  23133.80622332 -.00000334  00000-0 -29339-5 0  9999,2 53563  53.2168   2.1658 0001165  80.1703 279.9421 15.08834167 40813,6917.898,95.438,540.569,538.957,0.0
53563.0,STARLINK-4561,PAYLOAD,2023-05-13 20:56:21,15.08835214,0.0001146,53.2175,1.8682,88.4638,271.6486,5.4402e-05,5.78e-06,0.0,0 STARLINK-4561,1 53563U 22101AN  23133.87246559  .00000578  00000-0  54402-4 0  9995,2 53563  53.2175   1.8682 0001146  88.4638 271.6486 15.08835214 40826,6917.895,95.438,540.553,538.967,0.0
53563.0,STARLINK-4561,PAYLOAD,2023-05-14 01:42:30,15.08840752,0.0001101,53.2175,0.9757,89.0033,271.1085,9.0005e-05,1.145e-05,0.0,0 STARLINK-4561,1 53563U 22101AN  23134.07118100  .00001145  00000-0  90005-4 0  9998,2 53563  53.2175   0.9757 0001101  89.0033 271.1085 15.08840752 40852,6917.878,95.438,540.505,538.981,0.0
53563.0,STARLINK-4561,PAYLOAD,2023-05-14 14:25:35,15.08839512,0.0001135,53.2177,358.597,94.6317,265.4805,9.3362e-06,-1.39e-06,0.0,0 STARLINK-4561,1 53563U 22101AN  23134.60110601 -.00000139  00000-0  93362-5 0  9998,2 53563  53.2177 358.5970 0001135  94.6317 265.4805 15.08839512 40934,6917.882,95.438,540.532,538.962,0.0
53563.0,STARLINK-4561,PAYLOAD,2023-05-14 20:47:08,15.08840799,0.0001139,53.2177,357.4075,92.7973,267.315,1.3821e-05,-6.8e-07,0.0,0 STARLINK-4561,1 53563U 22101AN  23134.86606503 -.00000068  00000-0  13821-4 0  9999,2 53563  53.2177 357.4075 0001139  92.7973 267.3150 15.08840799 40976,6917.878,95.438,540.531,538.955,0.0
53563.0,STARLINK-4561,PAYLOAD,2023-05-14 23:57:53,15.08847906,0.0001183,53.2182,356.8114,100.4999,259.6126,7.279e-05,8.71e-06,0.0,0 STARLINK-4561,1 53563U 22101AN  23134.99853844  .00000871  00000-0  72790-4 0  9996,2 53563  53.2182 356.8114 0001183 100.4999 259.6126 15.08847906 40999,6917.856,95.437,540.54,538.903,0.0
53563.0,STARLINK-4561,PAYLOAD,2023-05-15 20:37:55,15.08834625,0.0001164,53.2173,352.9439,93.2508,266.8617,2.5739e-05,1.22e-06,0.0,0 STARLINK-4561,1 53563U 22101AN  23135.85966983  .00000122  00000-0  25739-4 0  9991,2 53563  53.2173 352.9439 0001164  93.2508 266.8617 15.08834625 41125,6917.897,95.438,540.567,538.957,0.0
53563.0,STARLINK-4561,PAYLOAD,2023-05-15 22:13:18,15.08834961,0.0001113,53.2175,352.6462,88.0036,272.1084,6.9385e-06,-1.77e-06,0.0,0 STARLINK-4561,1 53563U 22101AN  23135.92590954 -.00000177  00000-0  69385-5 0  9997,2 53563  53.2175 352.6462 0001113  88.0036 272.1084 15.08834961 41134,6917.896,95.438,540.531,538.991,0.0
53563.0,STARLINK-4561,PAYLOAD,2023-05-16 20:28:41,15.08846241,9.98e-05,53.2171,348.4829,92.3837,267.7269,6.718e-05,7.82e-06,0.0,0 STARLINK-4561,1 53563U 22101AN  23136.85326130  .00000782  00000-0  67180-4 0  9994,2 53563  53.2171 348.4829 0000998  92.3837 267.7269 15.08846241 41271,6917.861,95.437,540.417,539.036,0.0
53563.0,STARLINK-4561,PAYLOAD,2023-05-17 02:50:13,15.08856244,9.85e-05,53.2174,347.2937,98.6487,261.4617,0.00010588,1.398e-05,0.0,0 STARLINK-4561,1 53563U 22101AN  23137.11821285  .00001398  00000-0  10588-3 0  9998,2 53563  53.2174 347.2937 0000985  98.6487 261.4617 15.08856244 41314,6917.831,95.437,540.377,539.014,0.0
53563.0,STARLINK-4561,PAYLOAD,2023-05-17 04:25:38,15.0883592,0.0001105,53.2172,346.9972,82.36,277.7518,-4.9014e-05,-1.068e-05,0.0,0 STARLINK-4561,1 53563U 22101AN  23137.18446888 -.00001068  00000-0 -49014-4 0  9990,2 53563  53.2172 346.9972 0001105  82.3600 277.7518 15.08835920 41328,6917.893,95.438,540.522,538.993,0.0
53563.0,STARLINK-4561,PAYLOAD,2023-05-17 18:44:05,15.08842838,0.0001032,53.2163,344.3206,90.9065,269.2046,0.00013334,1.835e-05,0.0,0 STARLINK-4561,1 53563U 22101AN  23137.78062471  .00001835  00000-0  13334-3 0  9993,2 53563  53.2163 344.3206 0001032  90.9065 269.2046 15.08842838 41417,6917.872,95.437,540.451,539.023,0.0
53563.0,STARLINK-4561,PAYLOAD,2023-05-17 20:19:29,15.08844399,0.000102,53.2164,344.0232,89.5548,270.5561,0.00018123,2.598e-05,0.0,0 STARLINK-4561,1 53563U 22101AN  23137.84686428  .00002598  00000-0  18123-3 0  9992,2 53563  53.2164 344.0232 0001020  89.5548 270.5561 15.08844399 41423,6917.867,95.437,540.438,539.026,0.0
53563.0,STARLINK-4561,PAYLOAD,2023-05-18 13:48:43,15.08837985,9.76e-05,53.216,340.7523,85.8884,274.222,-1.7959e-05,-5.74e-06,0.0,0 STARLINK-4561,1 53563U 22101AN  23138.57550590 -.00000574  00000-0 -17959-4 0  9994,2 53563  53.2160 340.7523 0000976  85.8884 274.2220 15.08837985 41534,6917.887,95.438,540.427,539.076,0.0
53563.0,STARLINK-4561,PAYLOAD,2023-05-18 21:45:39,15.0884316,0.0001026,53.2163,339.266,80.1063,280.0045,0.00011586,1.557e-05,0.0,0 STARLINK-4561,1 53563U 22101AN  23138.90670492  .00001557  00000-0  11586-3 0  9994,2 53563  53.2163 339.2660 0001026  80.1063 280.0045 15.08843160 41583,6917.871,95.437,540.446,539.026,0.0
53563.0,STARLINK-4561,PAYLOAD,2023-05-19 16:50:16,15.08843267,9.72e-05,53.2162,335.697,79.4068,280.7034,0.00014744,2.06e-05,0.0,0 STARLINK-4561,1 53563U 22101AN  23139.70158495  .00002060  00000-0  14744-3 0  9996,2 53563  53.2162 335.6970 0000972  79.4068 280.7034 15.08843267 41708,6917.87,95.437,540.408,539.063,0.0
53563.0,STARLINK-4561,PAYLOAD,2023-05-19 20:01:03,15.08846703,0.0001033,53.2161,335.1021,82.2476,277.8633,0.00021063,3.067e-05,0.0,0 STARLINK-4561,1 53563U 22101AN  23139.83406351  .00003067  00000-0  21063-3 0  9997,2 53563  53.2161 335.1021 0001033  82.2476 277.8633 15.08846703 41725,6917.86,95.437,540.44,539.01,0.0
53563.0,STARLINK-4561,PAYLOAD,2023-05-20 19:51:49,15.0885364,8.98e-05,53.2153,330.6424,95.8927,264.2167,0.00024575,3.627e-05,0.0,0 STARLINK-4561,1 53563U 22101AN  23140.82765710  .00003627  00000-0  24575-3 0  9998,2 53563  53.2153 330.6424 0000898  95.8927 264.2167 15.08853640 41878,6917.839,95.437,540.325,539.082,0.0
53563.0,STARLINK-4561,PAYLOAD,2023-05-20 23:02:35,15.08856364,9.41e-05,53.2152,330.0466,90.3642,269.7458,0.00030995,4.651e-05,0.0,0 STARLINK-4561,1 53563U 22101AN  23140.96013576  .00004651  00000-0  30995-3 0  9990,2 53563  53.2152 330.0466 0000941  90.3642 269.7458 15.08856364 41891,6917.83,95.437,540.346,539.044,0.0
53563.0,STARLINK-4561,PAYLOAD,2023-05-21 05:24:08,15.08838509,9.84e-05,53.2159,328.8569,66.3269,293.7827,-3.8935e-05,-9.07e-06,0.0,0 STARLINK-4561,1 53563U 22101AN  23141.22510256 -.00000907  00000-0 -38935-4 0  9992,2 53563  53.2159 328.8569 0000984  66.3269 293.7827 15.08838509 41935,6917.885,95.438,540.431,539.069,0.0
